[Satellite]
VERSION=1.1
NAME=SL-14 R/B
NICKNAME=SL-14 R/B
TLE1=1 13553U 82092B   20158.14200917  .00000048  00000-0  28115-5 0  9992
TLE2=2 13553  82.5679 303.1431 0022753  61.3850 111.5286 14.84232820 37966
STATUS=0
